{
"type": "FeatureCollection",
"name": "res-parcel3",
"crs": { "type": "name", "properties": { "name": "urn:ogc:def:crs:OGC:1.3:CRS84" } },
"features": [
{ "type": "Feature", "properties": { }, "geometry": { "type": "Polygon", "coordinates": [ [ [ -93.65402227955461, 41.996111230589491 ], [ -93.651468805780937, 41.996087398167603 ], [ -93.64909918211896, 41.995913761950995 ], [ -93.647226634684927, 41.995849073948726 ], [ -93.64724025321172, 41.992897258266353 ], [ -93.65390652207688, 41.992573818255018 ], [ -93.65402227955461, 41.996111230589491 ] ] ] } }
]
}
