{
"type": "FeatureCollection",
"name": "res-parcel4",
"crs": { "type": "name", "properties": { "name": "urn:ogc:def:crs:OGC:1.3:CRS84" } },
"features": [
{ "type": "Feature", "properties": { }, "geometry": { "type": "Polygon", "coordinates": [ [ [ -93.649782597176184, 41.995287377232493 ], [ -93.649745989705167, 41.993426497455928 ], [ -93.649186708898, 41.993412261217202 ], [ -93.649213147627066, 41.995311782213172 ], [ -93.649213147627066, 41.995311782213172 ], [ -93.649782597176184, 41.995287377232493 ] ] ] } }
]
}
