{
"type": "FeatureCollection",
"name": "res-parcel5",
"crs": { "type": "name", "properties": { "name": "urn:ogc:def:crs:OGC:1.3:CRS84" } },
"features": [
{ "type": "Feature", "properties": { }, "geometry": { "type": "Polygon", "coordinates": [ [ [ -95.653566013249119, 36.332680727342272 ], [ -95.653566013249119, 36.331553186435762 ], [ -95.653569674096218, 36.331007720218004 ], [ -95.650783769453824, 36.330894233957927 ], [ -95.650813056230618, 36.332666083953882 ], [ -95.653566013249119, 36.332680727342272 ] ] ] } }
]
}
